[ {"name": "STARLINK-33660", "line1": "1 63278U 25053P   26191.70220871  .00010958  00000+0  40707-3 0  9990", "line2": "2 63278  43.0000 267.3270 0002146 280.1479  79.9130 15.27586328 75004"}, {"name": "STARLINK-33611", "line1": "1 63279U 25053Q   26192.65007909  .00009486  00000+0  35365-3 0  9999", "line2": "2 63279  43.0044 258.0809 0003277 296.9050  63.1467 15.27591614 75309"}, {"name": "STARLINK-33646", "line1": "1 63280U 25053R   26192.51627791  .00012395  00000+0  45903-3 0  9995", "line2": "2 63280  43.0047 262.2559 0001942 290.6992  69.3652 15.27591751 75133"}, {"name": "STARLINK-33665", "line1": "1 63281U 25053S   26191.25206106  .00020648  00000+0  75734-3 0  9994", "line2": "2 63281  42.9949 269.0911 0003125 146.2353 213.8698 15.27595750 74949"}, {"name": "STARLINK-33603", "line1": "1 63282U 25053T   26191.24835867  .00019591  00000+0  71927-3 0  9991", "line2": "2 63282  43.0001 269.9211 0000794 202.1706 157.9111 15.27592792 74936"}, {"name": "STARLINK-33669", "line1": "1 63283U 25053U   26192.24058910  .00007384  00000+0  27777-3 0  9990", "line2": "2 63283  42.9932 263.6123 0002320 155.6568 204.4393 15.27557507 75099"}, {"name": "STARLINK-33673", "line1": "1 63284U 25053V   26192.20684899  .00020963  00000+0  76861-3 0  9994", "line2": "2 63284  42.9967 256.4245 0004925 303.8264  56.2118 15.27593647 75280"}, {"name": "STARLINK-33662", "line1": "1 63285U 25053W   26192.26242241  .00007979  00000+0  29916-3 0  9993", "line2": "2 63285  43.0029 263.7873 0001922 282.7364  77.3273 15.27578495 75099"}, {"name": "STARLINK-33613", "line1": "1 63286U 25053X   26192.21888095  .00013157  00000+0  48676-3 0  9991", "line2": "2 63286  43.0019 264.3244 0002124 259.2166 100.8447 15.27580160 75088"}, {"name": "STARLINK-33680", "line1": "1 63287U 25053Y   26192.24699076  .00015202  00000+0  56035-3 0  9995", "line2": "2 63287  43.0078 263.6764 0001720 276.3354  83.7302 15.27607406 75142"}, {"name": "STARLINK-11568 [DTC]", "line1": "1 63307U 25057A   26192.56476923  .00121733  00000+0  93740-3 0  9992", "line2": "2 63307  42.9998 237.5242 0001202 271.9040  88.1690 15.70864509 76667"}, {"name": "STARLINK-11575 [DTC]", "line1": "1 63308U 25057B   26191.57398711  .00177531  00000+0  13552-2 0  9990", "line2": "2 63308  43.0000 243.8697 0001438 266.4413  93.6290 15.70883541 76509"}, {"name": "STARLINK-11585 [DTC]", "line1": "1 63309U 25057C   26191.62163908  .00213329  00000+0  16194-2 0  9996", "line2": "2 63309  43.0000 243.3569 0002041 280.4543  79.6094 15.70902801 76545"}, {"name": "STARLINK-11587 [DTC]", "line1": "1 63310U 25057D   26192.48538462  .00102136  00000+0  78897-3 0  9996", "line2": "2 63310  42.9987 238.6726 0002526 283.3467  76.7118 15.70860598 76648"}, {"name": "STARLINK-11589 [DTC]", "line1": "1 63311U 25057E   26192.49069746  .00098784  00000+0  76425-3 0  9990", "line2": "2 63311  42.9994 238.7162 0001217 271.5936  88.4792 15.70839365 76644"}, {"name": "STARLINK-11650 [DTC]", "line1": "1 63312U 25057F   26191.45833251  .00148837  00000+0  11381-2 0  9990", "line2": "2 63312  43.0001 244.7260 0001974 246.8465 113.2195 15.70936006 76514"}, {"name": "STARLINK-11648 [DTC]", "line1": "1 63313U 25057G   26192.47477267  .00119715  00000+0  92315-3 0  9995", "line2": "2 63313  42.9966 238.5885 0001157 320.3368  39.7415 15.70838504 76645"}, {"name": "STARLINK-11640 [DTC]", "line1": "1 63314U 25057H   26192.15154000  .00171325  00000+0  13057-2 0  9998", "line2": "2 63314  42.9995 240.4599 0001696 245.1195 114.9496 15.70941716 76591"}, {"name": "STARLINK-11652 [DTC]", "line1": "1 63315U 25057J   26192.26809021  .00114130  00000+0  88104-3 0  9998", "line2": "2 63315  42.9990 239.6076 0002652 292.8270  67.2317 15.70830662 76648"}, {"name": "STARLINK-11645 [DTC]", "line1": "1 63316U 25057K   26192.48006342  .00112547  00000+0  86569-3 0  9991", "line2": "2 63316  42.9998 238.6279 0001771 250.0845 109.9832 15.70924452 76676"}, {"name": "STARLINK-11633 [DTC]", "line1": "1 63317U 25057L   26191.60570949  .00180058  00000+0  13735-2 0  9990", "line2": "2 63317  42.9998 243.2245 0001911 258.8256 101.2397 15.70891733 76519"}, {"name": "STARLINK-11593 [DTC]", "line1": "1 63318U 25057M   26192.57007650  .00120090  00000+0  92490-3 0  9998", "line2": "2 63318  42.9992 237.5604 0001726 252.7580 107.3098 15.70866033 76695"}, {"name": "STARLINK-11588 [DTC]", "line1": "1 63319U 25057N   26192.45352796  .00098552  00000+0  76220-3 0  9990", "line2": "2 63319  42.9998 238.4106 0001838 227.4185 132.6527 15.70847276 76644"}, {"name": "STARLINK-33671", "line1": "1 63320U 25057P   26191.96447786  .00008440  00000+0  31586-3 0  9994", "line2": "2 63320  43.0052  44.0243 0002703 255.5365 104.5186 15.27582392 74752"}, {"name": "STARLINK-33650", "line1": "1 63321U 25057Q   26192.03226434  .00009581  00000+0  35725-3 0  9995", "line2": "2 63321  43.0096  54.0520 0004481 271.7342  88.2997 15.27574967 74601"}, {"name": "STARLINK-33689", "line1": "1 63322U 25057R   26192.02456754  .00014738  00000+0  54380-3 0  9993", "line2": "2 63322  43.0004  53.9953 0001407 343.7978  16.2828 15.27593167 74640"}, {"name": "STARLINK-33607", "line1": "1 63323U 25057S   26192.04641979  .00010940  00000+0  40648-3 0  9994", "line2": "2 63323  43.0061  54.1696 0002010  14.1319 345.9588 15.27581494 74601"}, {"name": "STARLINK-33619", "line1": "1 63324U 25057T   26192.01557253  .00017200  00000+0  63279-3 0  9994", "line2": "2 63324  43.0030  53.9278 0001358 311.5579  48.5156 15.27596593 74644"}, {"name": "STARLINK-33612", "line1": "1 63325U 25057U   26192.00543910  .00010433  00000+0  38810-3 0  9993", "line2": "2 63325  43.0071  54.7145 0001113 293.9321  66.1414 15.27580090 74636"}, {"name": "STARLINK-33672", "line1": "1 63326U 25057V   26191.05018286  .00019957  00000+0  73184-3 0  9994", "line2": "2 63326  42.9980  59.5681 0002885 251.5288 108.5250 15.27620638 74497"}]