OBJECT_NAME,OBJECT_ID,EPOCH,MEAN_MOTION,ECCENTRICITY,INCLINATION,RA_OF_ASC_NODE,ARG_OF_PERICENTER,MEAN_ANOMALY,EPHEMERIS_TYPE,CLASSIFICATION_TYPE,NORAD_CAT_ID,ELEMENT_SET_NO,REV_AT_EPOCH,BSTAR,MEAN_MOTION_DOT,MEAN_MOTION_DDOT
STARLINK-33660,2025-053P,2026-07-10T16:51:10.832544,15.27586328,.0002146,43.0000,267.3270,280.1479,79.9130,0,U,63278,999,7500,.40706887E-3,.10958E-3,0
STARLINK-33611,2025-053Q,2026-07-11T15:36:06.833376,15.27591614,.00032779,43.0044,258.0809,296.9050,63.1467,0,U,63279,999,7530,.35364978E-3,.9486E-4,0
STARLINK-33646,2025-053R,2026-07-11T12:23:26.411424,15.27591751,.00019427,43.0047,262.2559,290.6992,69.3652,0,U,63280,999,7513,.45903478E-3,.12395E-3,0
STARLINK-33665,2025-053S,2026-07-10T06:02:58.075584,15.27595750,.00031254,42.9949,269.0911,146.2353,213.8698,0,U,63281,999,7494,.75734022E-3,.20648E-3,0
STARLINK-33603,2025-053T,2026-07-10T05:57:38.189088,15.27592792,.00007948,43.0001,269.9211,202.1706,157.9111,0,U,63282,999,7493,.71926784E-3,.19591E-3,0
STARLINK-33669,2025-053U,2026-07-11T05:46:26.898240,15.27557507,.00023204,42.9932,263.6123,155.6568,204.4393,0,U,63283,999,7509,.27776856E-3,.7384E-4,0
STARLINK-33673,2025-053V,2026-07-11T04:57:51.752736,15.27593647,.00049251,42.9967,256.4245,303.8264,56.2118,0,U,63284,999,7528,.76860885E-3,.20963E-3,0
STARLINK-33662,2025-053W,2026-07-11T06:17:53.296224,15.27578495,.00019229,43.0029,263.7873,282.7364,77.3273,0,U,63285,999,7509,.29915674E-3,.7979E-4,0
STARLINK-33613,2025-053X,2026-07-11T05:15:11.314080,15.27580160,.0002124,43.0019,264.3244,259.2166,100.8447,0,U,63286,999,7508,.48675769E-3,.13157E-3,0
STARLINK-33680,2025-053Y,2026-07-11T05:55:40.001664,15.27607406,.00017201,43.0078,263.6764,276.3354,83.7302,0,U,63287,999,7514,.56035418E-3,.15202E-3,0
STARLINK-11568 [DTC],2025-057A,2026-07-11T13:33:16.061472,15.70864509,.00012026,42.9998,237.5242,271.9040,88.1690,0,U,63307,999,7666,.93740002E-3,.121733E-2,0
STARLINK-11575 [DTC],2025-057B,2026-07-10T13:46:32.486304,15.70883541,.00014382,43.0000,243.8697,266.4413,93.6290,0,U,63308,999,7650,.13552109E-2,.177531E-2,0
STARLINK-11585 [DTC],2025-057C,2026-07-10T14:55:09.616512,15.70902801,.00020416,43.0000,243.3569,280.4543,79.6094,0,U,63309,999,7654,.16194069E-2,.213329E-2,0
STARLINK-11587 [DTC],2025-057D,2026-07-11T11:38:57.231168,15.70860598,.00025261,42.9987,238.6726,283.3467,76.7118,0,U,63310,999,7664,.78897137E-3,.102136E-2,0
STARLINK-11589 [DTC],2025-057E,2026-07-11T11:46:36.260544,15.70839365,.00012176,42.9994,238.7162,271.5936,88.4792,0,U,63311,999,7664,.76424866E-3,.98784E-3,0
STARLINK-11650 [DTC],2025-057F,2026-07-10T10:59:59.928864,15.70936006,.0001974,43.0001,244.7260,246.8465,113.2195,0,U,63312,999,7651,.11381E-2,.148837E-2,0
STARLINK-11648 [DTC],2025-057G,2026-07-11T11:23:40.358688,15.70838504,.00011572,42.9966,238.5885,320.3368,39.7415,0,U,63313,999,7664,.92314554E-3,.119715E-2,0
STARLINK-11640 [DTC],2025-057H,2026-07-11T03:38:13.056000,15.70941716,.00016963,42.9995,240.4599,245.1195,114.9496,0,U,63314,999,7659,.13057363E-2,.171325E-2,0
STARLINK-11652 [DTC],2025-057J,2026-07-11T06:26:02.994144,15.70830662,.00026528,42.9990,239.6076,292.8270,67.2317,0,U,63315,999,7664,.88104003E-3,.11413E-2,0
STARLINK-11645 [DTC],2025-057K,2026-07-11T11:31:17.479488,15.70924452,.00017711,42.9998,238.6279,250.0845,109.9832,0,U,63316,999,7667,.86568501E-3,.112547E-2,0
STARLINK-11633 [DTC],2025-057L,2026-07-10T14:32:13.299936,15.70891733,.00019112,42.9998,243.2245,258.8256,101.2397,0,U,63317,999,7651,.13735404E-2,.180058E-2,0
STARLINK-11593 [DTC],2025-057M,2026-07-11T13:40:54.609600,15.70866033,.00017265,42.9992,237.5604,252.7580,107.3098,0,U,63318,999,7669,.92489604E-3,.12009E-2,0
STARLINK-11588 [DTC],2025-057N,2026-07-11T10:53:04.815744,15.70847276,.00018384,42.9998,238.4106,227.4185,132.6527,0,U,63319,999,7664,.76220458E-3,.98552E-3,0
STARLINK-33671,2025-057P,2026-07-10T23:08:50.887104,15.27582392,.00027039,43.0052,44.0243,255.5365,104.5186,0,U,63320,999,7475,.31585516E-3,.844E-4,0
STARLINK-33650,2025-057Q,2026-07-11T00:46:27.638976,15.27574967,.00044819,43.0096,54.0520,271.7342,88.2997,0,U,63321,999,7460,.35725432E-3,.9581E-4,0
STARLINK-33689,2025-057R,2026-07-11T00:35:22.635456,15.27593167,.00014075,43.0004,53.9953,343.7978,16.2828,0,U,63322,999,7464,.5437974E-3,.14738E-3,0
STARLINK-33607,2025-057S,2026-07-11T01:06:50.669856,15.27581494,.00020104,43.0061,54.1696,14.1319,345.9588,0,U,63323,999,7460,.40647513E-3,.1094E-3,0
STARLINK-33619,2025-057T,2026-07-11T00:22:25.466592,15.27596593,.00013585,43.0030,53.9278,311.5579,48.5156,0,U,63324,999,7464,.63278601E-3,.172E-3,0
STARLINK-33612,2025-057U,2026-07-11T00:07:49.938240,15.27580090,.00011135,43.0071,54.7145,293.9321,66.1414,0,U,63325,999,7463,.38810447E-3,.10433E-3,0
STARLINK-33672,2025-057V,2026-07-10T01:12:15.799104,15.27620638,.00028851,42.9980,59.5681,251.5288,108.5250,0,U,63326,999,7449,.73183762E-3,.19957E-3,0
